{"type": "FeatureCollection", "features": [ {"type": "Feature", "properties": {"norad_id": 35045, "name": "COSMOS 2251 DEB", "group": "cosmos-2251-debris", "lat": -68.79745416625683, "lon": -13.926479855943173, "alt_km": 766.8900771437011, "timestamp": "2025-12-22T18:58:53.828681+00:00", "meta": {"OBJECT_NAME": "COSMOS 2251 DEB", "OBJECT_ID": "1993-036AHJ", "EPOCH": "2025-12-20T12:28:28.167744", "MEAN_MOTION": 14.00402013, "ECCENTRICITY": 0.0183906, "INCLINATION": 73.7193, "RA_OF_ASC_NODE": 38.9629, "ARG_OF_PERICENTER": 279.9128, "MEAN_ANOMALY": 78.1289, "EPHEMERIS_TYPE": 0, "CLASSIFICATION_TYPE": "U", "NORAD_CAT_ID": 35045, "ELEMENT_SET_NO": 999, "REV_AT_EPOCH": 84752, "BSTAR": 0.0005282, "MEAN_MOTION_DOT": 8.78e-06, "MEAN_MOTION_DDOT": 0}, "tle": {"line1": "1 35045U 93036AHJ 25354.51977046  .00000878  00000+0  52820-3 0  9998", "line2": "2 35045  73.7193  38.9629 0183906 279.9128  78.1289 14.00402013847527"}}, "geometry": {"type": "Point", "coordinates": [-13.926479855943173, -68.79745416625683]}}, {"type": "Feature", "properties": {"norad_id": 35060, "name": "COSMOS 2251 DEB", "group": "cosmos-2251-debris", "lat": -56.18030435778798, "lon": 71.00780658397551, "alt_km": 755.424209342088, "timestamp": "2025-12-22T18:58:53.828691+00:00", "meta": {"OBJECT_NAME": "COSMOS 2251 DEB", "OBJECT_ID": "1993-036AHP", "EPOCH": "2025-12-17T09:37:48.798336", "MEAN_MOTION": 14.41611034, "ECCENTRICITY": 0.00186104, "INCLINATION": 74.0362, "RA_OF_ASC_NODE": 235.6937, "ARG_OF_PERICENTER": 321.6138, "MEAN_ANOMALY": 38.3692, "EPHEMERIS_TYPE": 0, "CLASSIFICATION_TYPE": "U", "NORAD_CAT_ID": 35060, "ELEMENT_SET_NO": 999, "REV_AT_EPOCH": 87309, "BSTAR": 0.00026105938, "MEAN_MOTION_DOT": 8.25e-06, "MEAN_MOTION_DDOT": 0}, "tle": {"line1": "1 35060U 93036AHP 25351.40125924  .00000825  00000+0  26106-3 0  9990", "line2": "2 35060  74.0362 235.6937 0018610 321.6138  38.3692 14.41611034873096"}}, "geometry": {"type": "Point", "coordinates": [71.00780658397551, -56.18030435778798]}}, {"type": "Feature", "properties": {"norad_id": 35061, "name": "COSMOS 2251 DEB", "group": "cosmos-2251-debris", "lat": -6.875824949489605, "lon": -75.66416029061544, "alt_km": 650.3009263781523, "timestamp": "2025-12-22T18:58:53.828702+00:00", "meta": {"OBJECT_NAME": "COSMOS 2251 DEB", "OBJECT_ID": "1993-036AHQ", "EPOCH": "2025-12-22T02:39:26.392032", "MEAN_MOTION": 14.67900627, "ECCENTRICITY": 0.00395554, "INCLINATION": 74.0464, "RA_OF_ASC_NODE": 287.6256, "ARG_OF_PERICENTER": 35.8445, "MEAN_ANOMALY": 324.5367, "EPHEMERIS_TYPE": 0, "CLASSIFICATION_TYPE": "U", "NORAD_CAT_ID": 35061, "ELEMENT_SET_NO": 999, "REV_AT_EPOCH": 88712, "BSTAR": 0.00075308745, "MEAN_MOTION_DOT": 4.328e-05, "MEAN_MOTION_DDOT": 0}, "tle": {"line1": "1 35061U 93036AHQ 25356.11072213  .00004328  00000+0  75309-3 0  9997", "line2": "2 35061  74.0464 287.6256 0039555  35.8445 324.5367 14.67900627887122"}}, "geometry": {"type": "Point", "coordinates": [-75.66416029061544, -6.875824949489605]}}, {"type": "Feature", "properties": {"norad_id": 35062, "name": "COSMOS 2251 DEB", "group": "cosmos-2251-debris", "lat": -45.017166268879144, "lon": -88.18047139194958, "alt_km": 903.9820916169647, "timestamp": "2025-12-22T18:58:53.828712+00:00", "meta": {"OBJECT_NAME": "COSMOS 2251 DEB", "OBJECT_ID": "1993-036AHR", "EPOCH": "2025-12-20T22:03:28.302048", "MEAN_MOTION": 14.22993492, "ECCENTRICITY": 0.0126453, "INCLINATION": 74.0793, "RA_OF_ASC_NODE": 78.5797, "ARG_OF_PERICENTER": 75.845, "MEAN_ANOMALY": 285.6708, "EPHEMERIS_TYPE": 0, "CLASSIFICATION_TYPE": "U", "NORAD_CAT_ID": 35062, "ELEMENT_SET_NO": 999, "REV_AT_EPOCH": 85615, "BSTAR": 0.0011493, "MEAN_MOTION_DOT": 2.786e-05, "MEAN_MOTION_DDOT": 0}, "tle": {"line1": "1 35062U 93036AHR 25354.91907757  .00002786  00000+0  11493-2 0  9993", "line2": "2 35062  74.0793  78.5797 0126453  75.8450 285.6708 14.22993492856157"}}, "geometry": {"type": "Point", "coordinates": [-88.18047139194958, -45.017166268879144]}}, {"type": "Feature", "properties": {"norad_id": 35065, "name": "COSMOS 2251 DEB", "group": "cosmos-2251-debris", "lat": 16.29168087894644, "lon": -179.62061213501738, "alt_km": 736.8445422456025, "timestamp": "2025-12-22T18:58:53.828722+00:00", "meta": {"OBJECT_NAME": "COSMOS 2251 DEB", "OBJECT_ID": "1993-036AHU", "EPOCH": "2025-12-19T06:12:25.656192", "MEAN_MOTION": 14.4574331, "ECCENTRICITY": 0.0020018, "INCLINATION": 74.0185, "RA_OF_ASC_NODE": 182.1668, "ARG_OF_PERICENTER": 306.5523, "MEAN_ANOMALY": 53.3791, "EPHEMERIS_TYPE": 0, "CLASSIFICATION_TYPE": "U", "NORAD_CAT_ID": 35065, "ELEMENT_SET_NO": 999, "REV_AT_EPOCH": 68445, "BSTAR": 0.00028971, "MEAN_MOTION_DOT": 1.002e-05, "MEAN_MOTION_DDOT": 0}, "tle": {"line1": "1 35065U 93036AHU 25353.25863028  .00001002  00000+0  28971-3 0  9994", "line2": "2 35065  74.0185 182.1668 0020018 306.5523  53.3791 14.45743310684450"}}, "geometry": {"type": "Point", "coordinates": [-179.62061213501738, 16.29168087894644]}}, {"type": "Feature", "properties": {"norad_id": 35071, "name": "COSMOS 2251 DEB", "group": "cosmos-2251-debris", "lat": 12.515155902641945, "lon": -30.898919437899938, "alt_km": 580.2448897110116, "timestamp": "2025-12-22T18:58:53.828731+00:00", "meta": {"OBJECT_NAME": "COSMOS 2251 DEB", "OBJECT_ID": "1993-036AJA", "EPOCH": "2025-12-15T18:34:31.974816", "MEAN_MOTION": 15.0351885, "ECCENTRICITY": 0.00682233, "INCLINATION": 73.9308, "RA_OF_ASC_NODE": 167.1964, "ARG_OF_PERICENTER": 62.71, "MEAN_ANOMALY": 298.1014, "EPHEMERIS_TYPE": 0, "CLASSIFICATION_TYPE": "U", "NORAD_CAT_ID": 35071, "ELEMENT_SET_NO": 999, "REV_AT_EPOCH": 67582, "BSTAR": 0.00048026378, "MEAN_MOTION_DOT": 6.858e-05, "MEAN_MOTION_DDOT": 0}, "tle": {"line1": "1 35071U 93036AJA 25349.77398119  .00006858  00000+0  48026-3 0  9994", "line2": "2 35071  73.9308 167.1964 0068223  62.7100 298.1014 15.03518850675828"}}, "geometry": {"type": "Point", "coordinates": [-30.898919437899938, 12.515155902641945]}}, {"type": "Feature", "properties": {"norad_id": 35073, "name": "COSMOS 2251 DEB", "group": "cosmos-2251-debris", "lat": -0.9628088791043222, "lon": 130.3496615229018, "alt_km": 570.6985195000525, "timestamp": "2025-12-22T18:58:53.828741+00:00", "meta": {"OBJECT_NAME": "COSMOS 2251 DEB", "OBJECT_ID": "1993-036AJC", "EPOCH": "2025-12-21T14:59:25.763136", "MEAN_MOTION": 15.01208163, "ECCENTRICITY": 0.0011308, "INCLINATION": 74.0017, "RA_OF_ASC_NODE": 312.4522, "ARG_OF_PERICENTER": 54.373, "MEAN_ANOMALY": 305.8509, "EPHEMERIS_TYPE": 0, "CLASSIFICATION_TYPE": "U", "NORAD_CAT_ID": 35073, "ELEMENT_SET_NO": 999, "REV_AT_EPOCH": 67612, "BSTAR": 0.0026084, "MEAN_MOTION_DOT": 0.00033655, "MEAN_MOTION_DDOT": 0}, "tle": {"line1": "1 35073U 93036AJC 25355.62460374  .00033655  00000+0  26084-2 0  9994", "line2": "2 35073  74.0017 312.4522 0011308  54.3730 305.8509 15.01208163676122"}}, "geometry": {"type": "Point", "coordinates": [130.3496615229018, -0.9628088791043222]}}, {"type": "Feature", "properties": {"norad_id": 35284, "name": "COSMOS 2251 DEB", "group": "cosmos-2251-debris", "lat": 16.336435552661854, "lon": 61.10990652362671, "alt_km": 775.5848865152348, "timestamp": "2025-12-22T18:58:53.828752+00:00", "meta": {"OBJECT_NAME": "COSMOS 2251 DEB", "OBJECT_ID": "1993-036AJN", "EPOCH": "2025-12-20T11:57:49.053888", "MEAN_MOTION": 14.38325797, "ECCENTRICITY": 0.00170776, "INCLINATION": 74.0488, "RA_OF_ASC_NODE": 250.1381, "ARG_OF_PERICENTER": 325.4276, "MEAN_ANOMALY": 212.2402, "EPHEMERIS_TYPE": 0, "CLASSIFICATION_TYPE": "U", "NORAD_CAT_ID": 35284, "ELEMENT_SET_NO": 999, "REV_AT_EPOCH": 65637, "BSTAR": 0.00012056337, "MEAN_MOTION_DOT": 3.41e-06, "MEAN_MOTION_DDOT": 0}, "tle": {"line1": "1 35284U 93036AJN 25354.49848442  .00000341  00000+0  12056-3 0  9999", "line2": "2 35284  74.0488 250.1381 0017077 325.4276 212.2402 14.38325797656375"}}, "geometry": {"type": "Point", "coordinates": [61.10990652362671, 16.336435552661854]}}, {"type": "Feature", "properties": {"norad_id": 35287, "name": "COSMOS 2251 DEB", "group": "cosmos-2251-debris", "lat": -73.92222349434348, "lon": 161.16039281676694, "alt_km": 776.0472060737666, "timestamp": "2025-12-22T18:58:53.828762+00:00", "meta": {"OBJECT_NAME": "COSMOS 2251 DEB", "OBJECT_ID": "1993-036AJR", "EPOCH": "2025-12-21T10:32:22.278336", "MEAN_MOTION": 14.36383286, "ECCENTRICITY": 0.00179584, "INCLINATION": 74.0303, "RA_OF_ASC_NODE": 260.1505, "ARG_OF_PERICENTER": 354.9118, "MEAN_ANOMALY": 126.406, "EPHEMERIS_TYPE": 0, "CLASSIFICATION_TYPE": "U", "NORAD_CAT_ID": 35287, "ELEMENT_SET_NO": 999, "REV_AT_EPOCH": 87017, "BSTAR": 0.00011122216, "MEAN_MOTION_DOT": 3e-06, "MEAN_MOTION_DDOT": 0}, "tle": {"line1": "1 35287U 93036AJR 25355.43914674  .00000300  00000+0  11122-3 0  9996", "line2": "2 35287  74.0303 260.1505 0017958 354.9118 126.4060 14.36383286870170"}}, "geometry": {"type": "Point", "coordinates": [161.16039281676694, -73.92222349434348]}}, {"type": "Feature", "properties": {"norad_id": 35288, "name": "COSMOS 2251 DEB", "group": "cosmos-2251-debris", "lat": 30.613420391754, "lon": 5.529591984063052, "alt_km": 699.8911738829365, "timestamp": "2025-12-22T18:58:53.828772+00:00", "meta": {"OBJECT_NAME": "COSMOS 2251 DEB", "OBJECT_ID": "1993-036AJS", "EPOCH": "2025-12-21T10:04:09.683328", "MEAN_MOTION": 14.65541798, "ECCENTRICITY": 0.00391307, "INCLINATION": 73.9498, "RA_OF_ASC_NODE": 358.3745, "ARG_OF_PERICENTER": 230.729, "MEAN_ANOMALY": 129.0405, "EPHEMERIS_TYPE": 0, "CLASSIFICATION_TYPE": "U", "NORAD_CAT_ID": 35288, "ELEMENT_SET_NO": 999, "REV_AT_EPOCH": 88005, "BSTAR": 0.00079112613, "MEAN_MOTION_DOT": 4.31e-05, "MEAN_MOTION_DDOT": 0}, "tle": {"line1": "1 35288U 93036AJS 25355.41955652  .00004310  00000+0  79113-3 0  9995", "line2": "2 35288  73.9498 358.3745 0039130 230.7290 129.0405 14.65541798880054"}}, "geometry": {"type": "Point", "coordinates": [5.529591984063052, 30.613420391754]}}]}